[{"OBJECT_NAME":"STARLINK-3708","OBJECT_ID":"2022-029Z","EPOCH":"2026-03-09T09:59:54.680640","MEAN_MOTION":15.0884025,"ECCENTRICITY":0.00013156,"INCLINATION":53.2173,"RA_OF_ASC_NODE":80.3443,"ARG_OF_PERICENTER":88.2783,"MEAN_ANOMALY":271.836,"EPHEMERIS_TYPE":0,"CLASSIFICATION_TYPE":"U","NORAD_CAT_ID":52111,"ELEMENT_SET_NO":999,"REV_AT_EPOCH":22074,"BSTAR":4.8352845e-5,"MEAN_MOTION_DOT":4.82e-6,"MEAN_MOTION_DDOT":0},{"OBJECT_NAME":"CZ-2D DEB","OBJECT_ID":"2017-060C","EPOCH":"2026-03-09T12:36:22.356864","MEAN_MOTION":15.07716497,"ECCENTRICITY":0.0018685,"INCLINATION":98.2453,"RA_OF_ASC_NODE":267.9231,"ARG_OF_PERICENTER":71.2095,"MEAN_ANOMALY":289.1156,"EPHEMERIS_TYPE":0,"CLASSIFICATION_TYPE":"U","NORAD_CAT_ID":44610,"ELEMENT_SET_NO":999,"REV_AT_EPOCH":45422,"BSTAR":0.00057216024,"MEAN_MOTION_DOT":8.702e-5,"MEAN_MOTION_DDOT":0}]
